[{"OBJECT_NAME":"IRIDIUM 33 DEB","OBJECT_ID":"1997-051GC","EPOCH":"2026-03-05T18:30:58.136544","MEAN_MOTION":14.43374509,"ECCENTRICITY":0.00294672,"INCLINATION":86.3482,"RA_OF_ASC_NODE":336.6456,"ARG_OF_PERICENTER":212.9401,"MEAN_ANOMALY":202.0704,"EPHEMERIS_TYPE":0,"CLASSIFICATION_TYPE":"U","NORAD_CAT_ID":34487,"ELEMENT_SET_NO":999,"REV_AT_EPOCH":89446,"BSTAR":0.00026749485,"MEAN_MOTION_DOT":9.26e-6,"MEAN_MOTION_DDOT":0},{"OBJECT_NAME":"IRIDIUM 33 DEB","OBJECT_ID":"1997-051GD","EPOCH":"2026-02-22T01:06:52.109280","MEAN_MOTION":15.78089963,"ECCENTRICITY":0.00047702,"INCLINATION":86.3081,"RA_OF_ASC_NODE":269.542,"ARG_OF_PERICENTER":70.8002,"MEAN_ANOMALY":289.3788,"EPHEMERIS_TYPE":0,"CLASSIFICATION_TYPE":"U","NORAD_CAT_ID":34488,"ELEMENT_SET_NO":999,"REV_AT_EPOCH":90341,"BSTAR":0.0064727089,"MEAN_MOTION_DOT":0.01238203,"MEAN_MOTION_DDOT":0},{"OBJECT_NAME":"IRIDIUM 33 DEB","OBJECT_ID":"1997-051GH","EPOCH":"2026-03-06T02:40:03.340992","MEAN_MOTION":14.27673579,"ECCENTRICITY":0.01863115,"INCLINATION":86.4697,"RA_OF_ASC_NODE":300.8852,"ARG_OF_PERICENTER":331.1488,"MEAN_ANOMALY":181.5951,"EPHEMERIS_TYPE":0,"CLASSIFICATION_TYPE":"U","NORAD_CAT_ID":34492,"ELEMENT_SET_NO":999,"REV_AT_EPOCH":86247,"BSTAR":0.0037451619,"MEAN_MOTION_DOT":0.00011132,"MEAN_MOTION_DDOT":0},{"OBJECT_NAME":"IRIDIUM 33 DEB","OBJECT_ID":"1997-051GN","EPOCH":"2026-03-06T19:47:18.299040","MEAN_MOTION":14.27771405,"ECCENTRICITY":0.0081986,"INCLINATION":86.2815,"RA_OF_ASC_NODE":16.4623,"ARG_OF_PERICENTER":67.7031,"MEAN_ANOMALY":322.2252,"EPHEMERIS_TYPE":0,"CLASSIFICATION_TYPE":"U","NORAD_CAT_ID":34497,"ELEMENT_SET_NO":999,"REV_AT_EPOCH":88083,"BSTAR":0.0011297,"MEAN_MOTION_DOT":2.91e-5,"MEAN_MOTION_DDOT":0},{"OBJECT_NAME":"IRIDIUM 33 DEB","OBJECT_ID":"1997-051GZ","EPOCH":"2026-03-06T09:56:17.597184","MEAN_MOTION":14.39103737,"ECCENTRICITY":0.00617321,"INCLINATION":86.366,"RA_OF_ASC_NODE":67.125,"ARG_OF_PERICENTER":258.6816,"MEAN_ANOMALY":100.7442,"EPHEMERIS_TYPE":0,"CLASSIFICATION_TYPE":"U","NORAD_CAT_ID":34508,"ELEMENT_SET_NO":999,"REV_AT_EPOCH":88512,"BSTAR":0.001390597,"MEAN_MOTION_DOT":4.415e-5,"MEAN_MOTION_DDOT":0},{"OBJECT_NAME":"IRIDIUM 33 DEB","OBJECT_ID":"1997-051HN","EPOCH":"2026-03-06T07:28:13.349568","MEAN_MOTION":14.64605588,"ECCENTRICITY":0.00047336,"INCLINATION":86.3835,"RA_OF_ASC_NODE":353.7268,"ARG_OF_PERICENTER":17.2595,"MEAN_ANOMALY":342.8778,"EPHEMERIS_TYPE":0,"CLASSIFICATION_TYPE":"U","NORAD_CAT_ID":34521,"ELEMENT_SET_NO":999,"REV_AT_EPOCH":89695,"BSTAR":0.0015848387,"MEAN_MOTION_DOT":8.441e-5,"MEAN_MOTION_DDOT":0},{"OBJECT_NAME":"IRIDIUM 33 DEB","OBJECT_ID":"1997-051HS","EPOCH":"2026-03-06T08:05:14.037792","MEAN_MOTION":14.43163033,"ECCENTRICITY":0.00047956,"INCLINATION":86.377,"RA_OF_ASC_NODE":11.1502,"ARG_OF_PERICENTER":146.909,"MEAN_ANOMALY":8.0236,"EPHEMERIS_TYPE":0,"CLASSIFICATION_TYPE":"U","NORAD_CAT_ID":34525,"ELEMENT_SET_NO":999,"REV_AT_EPOCH":89293,"BSTAR":0.0005395002,"MEAN_MOTION_DOT":1.831e-5,"MEAN_MOTION_DDOT":0},{"OBJECT_NAME":"IRIDIUM 33 DEB","OBJECT_ID":"1997-051HW","EPOCH":"2026-03-06T19:28:41.801952","MEAN_MOTION":14.40733922,"ECCENTRICITY":0.0003083,"INCLINATION":86.3692,"RA_OF_ASC_NODE":359.5745,"ARG_OF_PERICENTER":303.6296,"MEAN_ANOMALY":56.4609,"EPHEMERIS_TYPE":0,"CLASSIFICATION_TYPE":"U","NORAD_CAT_ID":34529,"ELEMENT_SET_NO":999,"REV_AT_EPOCH":89352,"BSTAR":0.00028061,"MEAN_MOTION_DOT":9.16e-6,"MEAN_MOTION_DDOT":0},{"OBJECT_NAME":"IRIDIUM 33 DEB","OBJECT_ID":"1997-051JF","EPOCH":"2026-03-06T04:25:01.862976","MEAN_MOTION":14.4325667,"ECCENTRICITY":0.00364941,"INCLINATION":86.2795,"RA_OF_ASC_NODE":329.0091,"ARG_OF_PERICENTER":50.1191,"MEAN_ANOMALY":101.7107,"EPHEMERIS_TYPE":0,"CLASSIFICATION_TYPE":"U","NORAD_CAT_ID":34538,"ELEMENT_SET_NO":999,"REV_AT_EPOCH":88959,"BSTAR":0.00089666788,"MEAN_MOTION_DOT":3.061e-5,"MEAN_MOTION_DDOT":0},{"OBJECT_NAME":"IRIDIUM 33 DEB","OBJECT_ID":"1997-051JH","EPOCH":"2026-03-06T20:02:20.279616","MEAN_MOTION":14.7733894,"ECCENTRICITY":0.0014462,"INCLINATION":86.3052,"RA_OF_ASC_NODE":269.0899,"ARG_OF_PERICENTER":234.065,"MEAN_ANOMALY":136.6174,"EPHEMERIS_TYPE":0,"CLASSIFICATION_TYPE":"U","NORAD_CAT_ID":34540,"ELEMENT_SET_NO":999,"REV_AT_EPOCH":90262,"BSTAR":0.0018209,"MEAN_MOTION_DOT":0.0001299,"MEAN_MOTION_DDOT":0},{"OBJECT_NAME":"IRIDIUM 33 DEB","OBJECT_ID":"1997-051JZ","EPOCH":"2026-03-06T11:48:47.458944","MEAN_MOTION":14.13369969,"ECCENTRICITY":0.0175721,"INCLINATION":86.388,"RA_OF_ASC_NODE":248.0786,"ARG_OF_PERICENTER":33.3568,"MEAN_ANOMALY":327.8541,"EPHEMERIS_TYPE":0,"CLASSIFICATION_TYPE":"U","NORAD_CAT_ID":34648,"ELEMENT_SET_NO":999,"REV_AT_EPOCH":86143,"BSTAR":0.0033030714,"MEAN_MOTION_DOT":7.204e-5,"MEAN_MOTION_DDOT":0},{"OBJECT_NAME":"IRIDIUM 33 DEB","OBJECT_ID":"1997-051KC","EPOCH":"2026-03-06T01:52:09.848064","MEAN_MOTION":14.27225873,"ECCENTRICITY":0.01319012,"INCLINATION":86.2776,"RA_OF_ASC_NODE":105.0632,"ARG_OF_PERICENTER":295.4634,"MEAN_ANOMALY":63.296,"EPHEMERIS_TYPE":0,"CLASSIFICATION_TYPE":"U","NORAD_CAT_ID":34651,"ELEMENT_SET_NO":999,"REV_AT_EPOCH":87084,"BSTAR":0.0026814294,"MEAN_MOTION_DOT":7.204e-5,"MEAN_MOTION_DDOT":0},{"OBJECT_NAME":"IRIDIUM 33 DEB","OBJECT_ID":"1997-051KD","EPOCH":"2026-03-06T15:04:46.318368","MEAN_MOTION":14.62942614,"ECCENTRICITY":0.0028682,"INCLINATION":86.3296,"RA_OF_ASC_NODE":302.6396,"ARG_OF_PERICENTER":13.4972,"MEAN_ANOMALY":16.2757,"EPHEMERIS_TYPE":0,"CLASSIFICATION_TYPE":"U","NORAD_CAT_ID":34652,"ELEMENT_SET_NO":999,"REV_AT_EPOCH":89710,"BSTAR":0.00092074646,"MEAN_MOTION_DOT":4.762e-5,"MEAN_MOTION_DDOT":0},{"OBJECT_NAME":"IRIDIUM 33 DEB","OBJECT_ID":"1997-051KM","EPOCH":"2026-03-06T08:01:26.294304","MEAN_MOTION":14.55447274,"ECCENTRICITY":0.00126066,"INCLINATION":86.3823,"RA_OF_ASC_NODE":0.6512,"ARG_OF_PERICENTER":91.4259,"MEAN_ANOMALY":38.4457,"EPHEMERIS_TYPE":0,"CLASSIFICATION_TYPE":"U","NORAD_CAT_ID":34690,"ELEMENT_SET_NO":999,"REV_AT_EPOCH":89310,"BSTAR":0.00056081644,"MEAN_MOTION_DOT":2.46e-5,"MEAN_MOTION_DDOT":0},{"OBJECT_NAME":"IRIDIUM 33 DEB","OBJECT_ID":"1997-051KQ","EPOCH":"2026-02-24T23:46:27.128064","MEAN_MOTION":15.78525,"ECCENTRICITY":0.00039393,"INCLINATION":86.2833,"RA_OF_ASC_NODE":265.9163,"ARG_OF_PERICENTER":44.5223,"MEAN_ANOMALY":315.6368,"EPHEMERIS_TYPE":0,"CLASSIFICATION_TYPE":"U","NORAD_CAT_ID":34693,"ELEMENT_SET_NO":999,"REV_AT_EPOCH":90061,"BSTAR":0.0068576941,"MEAN_MOTION_DOT":0.01322234,"MEAN_MOTION_DDOT":0},{"OBJECT_NAME":"IRIDIUM 33 DEB","OBJECT_ID":"1997-051KT","EPOCH":"2026-03-06T06:07:49.635840","MEAN_MOTION":14.72065919,"ECCENTRICITY":0.0057229,"INCLINATION":86.1832,"RA_OF_ASC_NODE":348.4669,"ARG_OF_PERICENTER":244.2046,"MEAN_ANOMALY":268.7483,"EPHEMERIS_TYPE":0,"CLASSIFICATION_TYPE":"U","NORAD_CAT_ID":34696,"ELEMENT_SET_NO":999,"REV_AT_EPOCH":87898,"BSTAR":0.0055834672,"MEAN_MOTION_DOT":0.00036173,"MEAN_MOTION_DDOT":0}]
