IRIDIUM 33 DEB          
1 34487U 97051GC  26064.77150621  .00000926  00000+0  26749-3 0  9992
2 34487  86.3482 336.6456 0029467 212.9401 202.0704 14.43374509894465
IRIDIUM 33 DEB          
1 34488U 97051GD  26053.04643645  .01238203  00000+0  64727-2 0  9993
2 34488  86.3081 269.5420 0004770  70.8002 289.3788 15.78089963903416
IRIDIUM 33 DEB          
1 34492U 97051GH  26065.11114978  .00011132  00000+0  37452-2 0  9995
2 34492  86.4697 300.8852 0186311 331.1488 181.5951 14.27673579862476
IRIDIUM 33 DEB          
1 34497U 97051GN  26065.82451735  .00002910  00000+0  11297-2 0  9996
2 34497  86.2815  16.4623 0081986  67.7031 322.2252 14.27771405880830
IRIDIUM 33 DEB          
1 34508U 97051GZ  26065.41409256  .00004415  00000+0  13906-2 0  9996
2 34508  86.3660  67.1250 0061732 258.6816 100.7442 14.39103737885127
IRIDIUM 33 DEB          
1 34521U 97051HN  26065.31126562  .00008441  00000+0  15848-2 0  9996
2 34521  86.3835 353.7268 0004733  17.2595 342.8778 14.64605588896953
IRIDIUM 33 DEB          
1 34525U 97051HS  26065.33696803  .00001831  00000+0  53950-3 0  9995
2 34525  86.3770  11.1502 0004795 146.9090   8.0236 14.43163033892934
IRIDIUM 33 DEB          
1 34529U 97051HW  26065.81159493  .00000916  00000+0  28061-3 0  9999
2 34529  86.3692 359.5745 0003083 303.6296  56.4609 14.40733922893522
IRIDIUM 33 DEB          
1 34538U 97051JF  26065.18404934  .00003061  00000+0  89667-3 0  9995
2 34538  86.2795 329.0091 0036494  50.1191 101.7107 14.43256670889593
IRIDIUM 33 DEB          
1 34540U 97051JH  26065.83495694  .00012990  00000+0  18209-2 0  9997
2 34540  86.3052 269.0899 0014462 234.0650 136.6174 14.77338940902625
IRIDIUM 33 DEB          
1 34648U 97051JZ  26065.49221596  .00007204  00000+0  33031-2 0  9998
2 34648  86.3880 248.0786 0175721  33.3568 327.8541 14.13369969861439
IRIDIUM 33 DEB          
1 34651U 97051KC  26065.07789176  .00007204  00000+0  26814-2 0  9990
2 34651  86.2776 105.0632 0131901 295.4634  63.2960 14.27225873870846
IRIDIUM 33 DEB          
1 34652U 97051KD  26065.62831387  .00004762  00000+0  92075-3 0  9993
2 34652  86.3296 302.6396 0028682  13.4972  16.2757 14.62942614897109
IRIDIUM 33 DEB          
1 34690U 97051KM  26065.33433211  .00002460  00000+0  56082-3 0  9998
2 34690  86.3823   0.6512 0012606  91.4259  38.4457 14.55447274893108
IRIDIUM 33 DEB          
1 34693U 97051KQ  26055.99059176  .01322234  00000+0  68577-2 0  9992
2 34693  86.2833 265.9163 0003939  44.5223 315.6368 15.78525000900614
IRIDIUM 33 DEB          
1 34696U 97051KT  26065.25543560  .00036173  00000+0  55835-2 0  9996
2 34696  86.1832 348.4669 0057229 244.2046 268.7483 14.72065919878987
